{
  "type": "FeatureCollection",
  "features": [
    {
      "type": "Feature",
      "properties": {
        "norad_id": 40118,
        "name": "GAOFEN-2",
        "group": "resource",
        "lat": 13.52871303240672,
        "lon": 50.93717577102024,
        "alt_km": 627.3718596466169,
        "timestamp": "2025-12-19T16:54:43.908134+00:00",
        "meta_object_name": "GAOFEN-2",
        "meta_object_id": "2014-049A",
        "meta_epoch": "2025-12-19T07:07:08.754240",
        "meta_mean_motion": 14.80619799,
        "meta_eccentricity": 0.00087248,
        "meta_inclination": 98.0383,
        "meta_ra_of_asc_node": 52.477,
        "meta_arg_of_pericenter": 94.8604,
        "meta_mean_anomaly": 265.3604,
        "meta_ephemeris_type": 0,
        "meta_classification_type": "U",
        "meta_norad_cat_id": 40118,
        "meta_element_set_no": 999,
        "meta_rev_at_epoch": 61261,
        "meta_bstar": 5.3149365e-05,
        "meta_mean_motion_dot": 3.55e-06,
        "meta_mean_motion_ddot": 0,
        "tle_line1": "1 40118U 14049A   25353.29662910  .00000355  00000+0  53149-4 0  9993",
        "tle_line2": "2 40118  98.0383  52.4770 0008724  94.8604 265.3604 14.80619799612610"
      },
      "geometry": {
        "type": "Point",
        "coordinates": [
          50.93717577102024,
          13.52871303240672
        ]
      }
    },
    {
      "type": "Feature",
      "properties": {
        "norad_id": 40143,
        "name": "YAOGAN-21",
        "group": "resource",
        "lat": -24.068303639363467,
        "lon": 39.94103584273258,
        "alt_km": 495.62260390881147,
        "timestamp": "2025-12-19T16:54:43.908145+00:00",
        "meta_object_name": "YAOGAN-21",
        "meta_object_id": "2014-053A",
        "meta_epoch": "2025-12-19T07:33:42.492096",
        "meta_mean_motion": 15.23739669,
        "meta_eccentricity": 0.00091299,
        "meta_inclination": 97.1753,
        "meta_ra_of_asc_node": 36.3426,
        "meta_arg_of_pericenter": 20.5724,
        "meta_mean_anomaly": 339.5879,
        "meta_ephemeris_type": 0,
        "meta_classification_type": "U",
        "meta_norad_cat_id": 40143,
        "meta_element_set_no": 999,
        "meta_rev_at_epoch": 62754,
        "meta_bstar": 9.4674071e-05,
        "meta_mean_motion_dot": 2.21e-05,
        "meta_mean_motion_ddot": 0,
        "tle_line1": "1 40143U 14053A   25353.31507514  .00002210  00000+0  94674-4 0  9997",
        "tle_line2": "2 40143  97.1753  36.3426 0009129  20.5724 339.5879 15.23739669627540"
      },
      "geometry": {
        "type": "Point",
        "coordinates": [
          39.94103584273258,
          -24.068303639363467
        ]
      }
    },
    {
      "type": "Feature",
      "properties": {
        "norad_id": 40275,
        "name": "YAOGAN-22",
        "group": "resource",
        "lat": -0.3625457304911754,
        "lon": 137.29117968926218,
        "alt_km": 1207.4460988051806,
        "timestamp": "2025-12-19T16:54:43.908155+00:00",
        "meta_object_name": "YAOGAN-22",
        "meta_object_id": "2014-063A",
        "meta_epoch": "2025-12-19T05:57:45.522720",
        "meta_mean_motion": 13.15522927,
        "meta_eccentricity": 0.00060054,
        "meta_inclination": 100.7426,
        "meta_ra_of_asc_node": 136.7599,
        "meta_arg_of_pericenter": 232.3255,
        "meta_mean_anomaly": 127.7312,
        "meta_ephemeris_type": 0,
        "meta_classification_type": "U",
        "meta_norad_cat_id": 40275,
        "meta_element_set_no": 999,
        "meta_rev_at_epoch": 53615,
        "meta_bstar": -1.5766651e-05,
        "meta_mean_motion_dot": -5.3e-07,
        "meta_mean_motion_ddot": 0,
        "tle_line1": "1 40275U 14063A   25353.24844355 -.00000053  00000+0 -15767-4 0  9994",
        "tle_line2": "2 40275 100.7426 136.7599 0006005 232.3255 127.7312 13.15522927536153"
      },
      "geometry": {
        "type": "Point",
        "coordinates": [
          137.29117968926218,
          -0.3625457304911754
        ]
      }
    },
    {
      "type": "Feature",
      "properties": {
        "norad_id": 40298,
        "name": "ASNARO",
        "group": "resource",
        "lat": -77.51735945676047,
        "lon": 105.23682032531563,
        "alt_km": 518.3029372843685,
        "timestamp": "2025-12-19T16:54:43.908166+00:00",
        "meta_object_name": "ASNARO",
        "meta_object_id": "2014-070A",
        "meta_epoch": "2025-12-19T06:12:04.510656",
        "meta_mean_motion": 15.19623879,
        "meta_eccentricity": 0.00058016,
        "meta_inclination": 97.3655,
        "meta_ra_of_asc_node": 69.0463,
        "meta_arg_of_pericenter": 104.706,
        "meta_mean_anomaly": 255.4819,
        "meta_ephemeris_type": 0,
        "meta_classification_type": "U",
        "meta_norad_cat_id": 40298,
        "meta_element_set_no": 999,
        "meta_rev_at_epoch": 61668,
        "meta_bstar": 0.00031493741,
        "meta_mean_motion_dot": 6.647e-05,
        "meta_mean_motion_ddot": 0,
        "tle_line1": "1 40298U 14070A   25353.25838554  .00006647  00000+0  31494-3 0  9999",
        "tle_line2": "2 40298  97.3655  69.0463 0005801 104.7060 255.4819 15.19623879616682"
      },
      "geometry": {
        "type": "Point",
        "coordinates": [
          105.23682032531563,
          -77.51735945676047
        ]
      }
    },
    {
      "type": "Feature",
      "properties": {
        "norad_id": 40310,
        "name": "YAOGAN-24",
        "group": "resource",
        "lat": -65.56564418509474,
        "lon": -73.48514283943902,
        "alt_km": 655.348315000323,
        "timestamp": "2025-12-19T16:54:43.908176+00:00",
        "meta_object_name": "YAOGAN-24",
        "meta_object_id": "2014-072A",
        "meta_epoch": "2025-12-19T07:39:52.944192",
        "meta_mean_motion": 14.7618879,
        "meta_eccentricity": 0.00150268,
        "meta_inclination": 98.122,
        "meta_ra_of_asc_node": 124.4473,
        "meta_arg_of_pericenter": 118.2761,
        "meta_mean_anomaly": 241.9967,
        "meta_ephemeris_type": 0,
        "meta_classification_type": "U",
        "meta_norad_cat_id": 40310,
        "meta_element_set_no": 999,
        "meta_rev_at_epoch": 59718,
        "meta_bstar": 6.5241852e-05,
        "meta_mean_motion_dot": 3.99e-06,
        "meta_mean_motion_ddot": 0,
        "tle_line1": "1 40310U 14072A   25353.31936278  .00000399  00000+0  65242-4 0  9992",
        "tle_line2": "2 40310  98.1220 124.4473 0015026 118.2761 241.9967 14.76188790597186"
      },
      "geometry": {
        "type": "Point",
        "coordinates": [
          -73.48514283943902,
          -65.56564418509474
        ]
      }
    },
    {
      "type": "Feature",
      "properties": {
        "norad_id": 40336,
        "name": "CBERS 4",
        "group": "resource",
        "lat": 48.31105478676627,
        "lon": 42.01419735655758,
        "alt_km": 768.2665426373269,
        "timestamp": "2025-12-19T16:54:43.908187+00:00",
        "meta_object_name": "CBERS 4",
        "meta_object_id": "2014-079A",
        "meta_epoch": "2025-12-19T06:38:51.776160",
        "meta_mean_motion": 14.35520092,
        "meta_eccentricity": 0.00017775,
        "meta_inclination": 98.3306,
        "meta_ra_of_asc_node": 51.0705,
        "meta_arg_of_pericenter": 105.9522,
        "meta_mean_anomaly": 254.186,
        "meta_ephemeris_type": 0,
        "meta_classification_type": "U",
        "meta_norad_cat_id": 40336,
        "meta_element_set_no": 999,
        "meta_rev_at_epoch": 57814,
        "meta_bstar": 5.7965859e-05,
        "meta_mean_motion_dot": 1.25e-06,
        "meta_mean_motion_ddot": 0,
        "tle_line1": "1 40336U 14079A   25353.27698815  .00000125  00000+0  57966-4 0  9995",
        "tle_line2": "2 40336  98.3306  51.0705 0001777 105.9522 254.1860 14.35520092578143"
      },
      "geometry": {
        "type": "Point",
        "coordinates": [
          42.01419735655758,
          48.31105478676627
        ]
      }
    },
    {
      "type": "Feature",
      "properties": {
        "norad_id": 40362,
        "name": "YAOGAN-26",
        "group": "resource",
        "lat": 80.74695400162078,
        "lon": -55.43015787051441,
        "alt_km": 439.1114071845959,
        "timestamp": "2025-12-19T16:54:43.908197+00:00",
        "meta_object_name": "YAOGAN-26",
        "meta_object_id": "2014-088A",
        "meta_epoch": "2025-12-19T07:11:21.581376",
        "meta_mean_motion": 15.39525147,
        "meta_eccentricity": 0.00054204,
        "meta_inclination": 97.0634,
        "meta_ra_of_asc_node": 353.741,
        "meta_arg_of_pericenter": 10.6122,
        "meta_mean_anomaly": 349.5238,
        "meta_ephemeris_type": 0,
        "meta_classification_type": "U",
        "meta_norad_cat_id": 40362,
        "meta_element_set_no": 999,
        "meta_rev_at_epoch": 60995,
        "meta_bstar": 0.00042933509,
        "meta_mean_motion_dot": 0.0001681,
        "meta_mean_motion_ddot": 0,
        "tle_line1": "1 40362U 14088A   25353.29955534  .00016810  00000+0  42934-3 0  9996",
        "tle_line2": "2 40362  97.0634 353.7410 0005420  10.6122 349.5238 15.39525147609957"
      },
      "geometry": {
        "type": "Point",
        "coordinates": [
          -55.43015787051441,
          80.74695400162078
        ]
      }
    }
  ]
}